STARLINK-1789
1 16690C 20073W   21326.15225495  .00007243  00000-0  48519-3 0  3264
2 16690  53.0550  73.0455 0001191  73.3068 152.6186 15.06400486    12
